start=new Date('2022-12-14T00:00:00.000Z').valueOf();
sats=[{"MEAN_MOTION_DDOT":"0.0000000000000","MEAN_MOTION":"15.06398611","PERIAPSIS":"545.943","ELEMENT_SET_NO":"999","OBJECT_TYPE":"PAYLOAD","MEAN_ANOMALY":"314.2181","CLASSIFICATION_TYPE":"U","LAUNCH_DATE":"2021-05-09","APOAPSIS":"548.493","FILE":"3697684","REF_FRAME":"TEME","MEAN_MOTION_DOT":"0.00000329","DECAY_DATE":null,"EPHEMERIS_TYPE":"0","RCS_SIZE":"LARGE","CENTER_NAME":"EARTH","INCLINATION":"53.0534","TLE_LINE2":"2 48445  53.0534  87.8103 0001841  45.8959 314.2181 15.06398611 89757","TLE_LINE1":"1 48445U 21040T   22347.69285939  .00000329  00000-0  40996-4 0  9997","RA_OF_ASC_NODE":"87.8103","PERIOD":"95.592","ECCENTRICITY":"0.00018410","EPOCH":"2022-12-13T16:37:43.051296","OBJECT_NAME":"STARLINK-2634","SEMIMAJOR_AXIS":"6925.353","BSTAR":"0.00004099600000","MEAN_ELEMENT_THEORY":"SGP4","TIME_SYSTEM":"UTC","ARG_OF_PERICENTER":"45.8959","OBJECT_ID":"2021-040T","REV_AT_EPOCH":"8975","COUNTRY_CODE":"US","SITE":"AFETR","GP_ID":"220291600","NORAD_CAT_ID":"48445"},{"APOAPSIS":"548.331","FILE":"3697190","MEAN_MOTION_DOT":"0.00000458","REF_FRAME":"TEME","DECAY_DATE":null,"EPHEMERIS_TYPE":"0","CENTER_NAME":"EARTH","RCS_SIZE":"LARGE","INCLINATION":"53.0527","TLE_LINE2":"2 48446  53.0527  88.4280 0001606  60.1700 299.9448 15.06398301 88453","MEAN_MOTION_DDOT":"0.0000000000000","MEAN_MOTION":"15.06398301","PERIAPSIS":"546.107","OBJECT_TYPE":"PAYLOAD","ELEMENT_SET_NO":"999","MEAN_ANOMALY":"299.9448","CLASSIFICATION_TYPE":"U","LAUNCH_DATE":"2021-05-09","BSTAR":"0.00004963900000","MEAN_ELEMENT_THEORY":"SGP4","TIME_SYSTEM":"UTC","ARG_OF_PERICENTER":"60.1700","OBJECT_ID":"2021-040U","REV_AT_EPOCH":"8845","COUNTRY_CODE":"US","SITE":"AFETR","NORAD_CAT_ID":"48446","GP_ID":"220276525","TLE_LINE1":"1 48446U 21040U   22347.55648248  .00000458  00000-0  49639-4 0  9995","RA_OF_ASC_NODE":"88.4280","PERIOD":"95.592","ECCENTRICITY":"0.00016060","EPOCH":"2022-12-13T13:21:20.086272","OBJECT_NAME":"STARLINK-2247","SEMIMAJOR_AXIS":"6925.354"},{"GP_ID":"220276775","NORAD_CAT_ID":"48447","SITE":"AFETR","COUNTRY_CODE":"US","REV_AT_EPOCH":"8845","OBJECT_ID":"2021-040V","ARG_OF_PERICENTER":"45.6741","TIME_SYSTEM":"UTC","MEAN_ELEMENT_THEORY":"SGP4","BSTAR":"0.00006183100000","SEMIMAJOR_AXIS":"6925.340","OBJECT_NAME":"STARLINK-2269","EPOCH":"2022-12-13T13:16:00.909120","ECCENTRICITY":"0.00017600","RA_OF_ASC_NODE":"88.4508","PERIOD":"95.592","TLE_LINE1":"1 48447U 21040V   22347.55278830  .00000640  00000-0  61831-4 0  9993","TLE_LINE2":"2 48447  53.0551  88.4508 0001760  45.6741 314.4392 15.06402882 88459","INCLINATION":"53.0551","CENTER_NAME":"EARTH","RCS_SIZE":"LARGE","EPHEMERIS_TYPE":"0","DECAY_DATE":null,"MEAN_MOTION_DOT":"0.00000640","REF_FRAME":"TEME","FILE":"3697190","APOAPSIS":"548.424","LAUNCH_DATE":"2021-05-09","CLASSIFICATION_TYPE":"U","MEAN_ANOMALY":"314.4392","OBJECT_TYPE":"PAYLOAD","ELEMENT_SET_NO":"999","PERIAPSIS":"545.986","MEAN_MOTION_DDOT":"0.0000000000000","MEAN_MOTION":"15.06402882"},{"FILE":"3697190","APOAPSIS":"548.676","MEAN_MOTION_DOT":"0.00000021","REF_FRAME":"TEME","DECAY_DATE":null,"INCLINATION":"53.0534","EPHEMERIS_TYPE":"0","CENTER_NAME":"EARTH","RCS_SIZE":"LARGE","TLE_LINE2":"2 48448  53.0534  88.3327 0002117  50.3581 309.7594 15.06401052 88450","PERIAPSIS":"545.744","MEAN_MOTION":"15.06401052","MEAN_MOTION_DDOT":"0.0000000000000","CLASSIFICATION_TYPE":"U","MEAN_ANOMALY":"309.7594","ELEMENT_SET_NO":"999","OBJECT_TYPE":"PAYLOAD","LAUNCH_DATE":"2021-05-09","MEAN_ELEMENT_THEORY":"SGP4","BSTAR":"0.00002033600000","REV_AT_EPOCH":"8845","COUNTRY_CODE":"US","ARG_OF_PERICENTER":"50.3581","TIME_SYSTEM":"UTC","OBJECT_ID":"2021-040W","NORAD_CAT_ID":"48448","GP_ID":"220277527","SITE":"AFETR","PERIOD":"95.592","RA_OF_ASC_NODE":"88.3327","TLE_LINE1":"1 48448U 21040W   22347.57764963  .00000021  00000-0  20336-4 0  9991","EPOCH":"2022-12-13T13:51:48.928032","ECCENTRICITY":"0.00021170","SEMIMAJOR_AXIS":"6925.345","OBJECT_NAME":"STARLINK-2632"},{"TLE_LINE1":"1 48449U 21040X   22347.41641613  .00000616  00000-0  60235-4 0  9993","PERIOD":"95.592","RA_OF_ASC_NODE":"89.0537","OBJECT_NAME":"STARLINK-2655","SEMIMAJOR_AXIS":"6925.354","ECCENTRICITY":"0.00016470","EPOCH":"2022-12-13T09:59:38.353632","BSTAR":"0.00006023500000","MEAN_ELEMENT_THEORY":"SGP4","SITE":"AFETR","GP_ID":"220277765","NORAD_CAT_ID":"48449","ARG_OF_PERICENTER":"55.8901","TIME_SYSTEM":"UTC","OBJECT_ID":"2021-040X","REV_AT_EPOCH":"8843","COUNTRY_CODE":"US","OBJECT_TYPE":"PAYLOAD","ELEMENT_SET_NO":"999","CLASSIFICATION_TYPE":"U","MEAN_ANOMALY":"304.2244","MEAN_MOTION":"15.06398080","MEAN_MOTION_DDOT":"0.0000000000000","PERIAPSIS":"546.079","LAUNCH_DATE":"2021-05-09","REF_FRAME":"TEME","MEAN_MOTION_DOT":"0.00000616","DECAY_DATE":null,"APOAPSIS":"548.360","FILE":"3697190","TLE_LINE2":"2 48449  53.0535  89.0537 0001647  55.8901 304.2244 15.06398080 88432","EPHEMERIS_TYPE":"0","RCS_SIZE":"LARGE","CENTER_NAME":"EARTH","INCLINATION":"53.0535"},{"MEAN_MOTION_DOT":"0.00000243","REF_FRAME":"TEME","DECAY_DATE":null,"APOAPSIS":"548.619","FILE":"3697805","TLE_LINE2":"2 48450  53.0557  89.6656 0002040  59.9045 300.2146 15.06402387 89690","EPHEMERIS_TYPE":"0","CENTER_NAME":"EARTH","RCS_SIZE":"LARGE","INCLINATION":"53.0557","ELEMENT_SET_NO":"999","OBJECT_TYPE":"PAYLOAD","MEAN_ANOMALY":"300.2146","CLASSIFICATION_TYPE":"U","MEAN_MOTION_DDOT":"0.0000000000000","MEAN_MOTION":"15.06402387","PERIAPSIS":"545.793","LAUNCH_DATE":"2021-05-09","BSTAR":"0.00003524300000","MEAN_ELEMENT_THEORY":"SGP4","SITE":"AFETR","NORAD_CAT_ID":"48450","GP_ID":"220293710","ARG_OF_PERICENTER":"59.9045","TIME_SYSTEM":"UTC","OBJECT_ID":"2021-040Y","REV_AT_EPOCH":"8969","COUNTRY_CODE":"US","TLE_LINE1":"1 48450U 21040Y   22347.28003375  .00000243  00000-0  35243-4 0  9994","PERIOD":"95.592","RA_OF_ASC_NODE":"89.6656","OBJECT_NAME":"STARLINK-2660","SEMIMAJOR_AXIS":"6925.341","ECCENTRICITY":"0.00020400","EPOCH":"2022-12-13T06:43:14.916000"},{"BSTAR":"0.00003952900000","MEAN_ELEMENT_THEORY":"SGP4","SITE":"AFETR","GP_ID":"220276276","NORAD_CAT_ID":"48451","OBJECT_ID":"2021-040Z","TIME_SYSTEM":"UTC","ARG_OF_PERICENTER":"68.6927","COUNTRY_CODE":"US","REV_AT_EPOCH":"8842","TLE_LINE1":"1 48451U 21040Z   22347.34543765  .00000307  00000-0  39529-4 0  9996","PERIOD":"95.592","RA_OF_ASC_NODE":"89.4090","OBJECT_NAME":"STARLINK-2652","SEMIMAJOR_AXIS":"6925.339","ECCENTRICITY":"0.00015670","EPOCH":"2022-12-13T08:17:25.812960","DECAY_DATE":null,"MEAN_MOTION_DOT":"0.00000307","REF_FRAME":"TEME","APOAPSIS":"548.289","FILE":"3697190","TLE_LINE2":"2 48451  53.0554  89.4090 0001567  68.6927 291.4230 15.06403061 88422","CENTER_NAME":"EARTH","RCS_SIZE":"LARGE","EPHEMERIS_TYPE":"0","INCLINATION":"53.0554","ELEMENT_SET_NO":"999","OBJECT_TYPE":"PAYLOAD","MEAN_ANOMALY":"291.4230","CLASSIFICATION_TYPE":"U","MEAN_MOTION":"15.06403061","MEAN_MOTION_DDOT":"0.0000000000000","PERIAPSIS":"546.119","LAUNCH_DATE":"2021-05-09"},{"ECCENTRICITY":"0.00014280","EPOCH":"2022-12-13T09:49:01.158816","OBJECT_NAME":"STARLINK-2703","SEMIMAJOR_AXIS":"6925.367","TLE_LINE1":"1 48452U 21040AA  22347.40904119 -.00000873  00000-0 -39696-4 0  9993","RA_OF_ASC_NODE":"89.0648","PERIOD":"95.593","OBJECT_ID":"2021-040AA","ARG_OF_PERICENTER":"69.8594","TIME_SYSTEM":"UTC","COUNTRY_CODE":"US","REV_AT_EPOCH":"8843","SITE":"AFETR","NORAD_CAT_ID":"48452","GP_ID":"220277028","BSTAR":"-0.00003969600000","MEAN_ELEMENT_THEORY":"SGP4","LAUNCH_DATE":"2021-05-09","MEAN_MOTION_DDOT":"0.0000000000000","MEAN_MOTION":"15.06393894","PERIAPSIS":"546.243","ELEMENT_SET_NO":"999","OBJECT_TYPE":"PAYLOAD","MEAN_ANOMALY":"290.2549","CLASSIFICATION_TYPE":"U","CENTER_NAME":"EARTH","RCS_SIZE":"LARGE","EPHEMERIS_TYPE":"0","INCLINATION":"53.0576","TLE_LINE2":"2 48452  53.0576  89.0648 0001428  69.8594 290.2549 15.06393894 88434","APOAPSIS":"548.221","FILE":"3697190","DECAY_DATE":null,"REF_FRAME":"TEME","MEAN_MOTION_DOT":"-0.00000873"},{"LAUNCH_DATE":"2021-05-09","MEAN_MOTION":"15.06404958","MEAN_MOTION_DDOT":"0.0000000000000","PERIAPSIS":"545.888","ELEMENT_SET_NO":"999","OBJECT_TYPE":"PAYLOAD","MEAN_ANOMALY":"308.5656","CLASSIFICATION_TYPE":"U","EPHEMERIS_TYPE":"0","CENTER_NAME":"EARTH","RCS_SIZE":"LARGE","INCLINATION":"53.0549","TLE_LINE2":"2 48453  53.0549  89.4122 0001892  51.5503 308.5656 15.06404958 88424","APOAPSIS":"548.509","FILE":"3697190","MEAN_MOTION_DOT":"-0.00000362","REF_FRAME":"TEME","DECAY_DATE":null,"ECCENTRICITY":"0.00018920","EPOCH":"2022-12-13T08:08:10.448448","OBJECT_NAME":"STARLINK-2620","SEMIMAJOR_AXIS":"6925.333","TLE_LINE1":"1 48453U 21040AB  22347.33900982 -.00000362  00000-0 -54202-5 0  9994","RA_OF_ASC_NODE":"89.4122","PERIOD":"95.592","TIME_SYSTEM":"UTC","ARG_OF_PERICENTER":"51.5503","OBJECT_ID":"2021-040AB","REV_AT_EPOCH":"8842","COUNTRY_CODE":"US","SITE":"AFETR","NORAD_CAT_ID":"48453","GP_ID":"220277266","BSTAR":"-0.00000542020000","MEAN_ELEMENT_THEORY":"SGP4"},{"TLE_LINE1":"1 48454U 21040AC  22347.33532923  .00002368  00000-0  17778-3 0  9992","PERIOD":"95.592","RA_OF_ASC_NODE":"89.4119","OBJECT_NAME":"STARLINK-2654","SEMIMAJOR_AXIS":"6925.337","ECCENTRICITY":"0.00015930","EPOCH":"2022-12-13T08:02:52.445472","BSTAR":"0.00017778000000","MEAN_ELEMENT_THEORY":"SGP4","SITE":"AFETR","GP_ID":"220276526","NORAD_CAT_ID":"48454","ARG_OF_PERICENTER":"60.5567","TIME_SYSTEM":"UTC","OBJECT_ID":"2021-040AC","REV_AT_EPOCH":"8842","COUNTRY_CODE":"US","OBJECT_TYPE":"PAYLOAD","ELEMENT_SET_NO":"999","MEAN_ANOMALY":"299.5581","CLASSIFICATION_TYPE":"U","MEAN_MOTION_DDOT":"0.0000000000000","MEAN_MOTION":"15.06403911","PERIAPSIS":"546.098","LAUNCH_DATE":"2021-05-09","MEAN_MOTION_DOT":"0.00002368","REF_FRAME":"TEME","DECAY_DATE":null,"APOAPSIS":"548.305","FILE":"3697190","TLE_LINE2":"2 48454  53.0538  89.4119 0001593  60.5567 299.5581 15.06403911 88421","EPHEMERIS_TYPE":"0","CENTER_NAME":"EARTH","RCS_SIZE":"LARGE","INCLINATION":"53.0538"}];
